1 00012U 59001  B 89207.06682935  .00002488 +00000-0 +15454-2 0  9996
2 00012 032.9147 209.1536 1746366 006.0802 355.8275 11.27380507236477
1 00012U 59001  B 89207.15545430  .00002481 +00000-0 +15414-2 0  9993
2 00012 032.9146 208.8523 1746334 006.5326 355.5169 11.27380786236488
1 00012U 59001  B 89209.99138271  .00002538 +00000-0 +15784-2 0  9991
2 00012 032.9098 199.2111 1746051 021.0220 345.3983 11.27394810236801
1 00012U 59001  B 89212.11826566  .00002526 +00000-0 +15709-2 0  9994
2 00012 032.9079 191.9801 1746044 031.8900 337.6366 11.27404926237047
1 00012U 59001  B 89214.24506884  .00002521 +00000-0 +15696-2 0  9998
2 00012 032.9059 184.7469 1745825 042.7545 329.6389 11.27415123237280
1 00012U 59001  B 89216.28315891  .00002570 +00000-0 +16015-2 0  9990
2 00012 032.9035 177.8160 1745592 053.1687 321.6683 11.27425793237518
1 00012U 59001  B 89216.28343670  .00002567 +00000-0 +15993-2 0  9996
2 00012 032.9038 177.8163 1745658 053.1673 321.6688 11.27425798237512
1 00012U 59001  B 89219.11857361  .00002684 +00000-0 +16711-2 0  9997
2 00012 032.9008 168.1790 1745777 067.6556 309.9428 11.27441941237834
1 00012U 59001  B 89220.27038296  .00002783 +00000-0 +17317-2 0  9997
2 00012 032.8989 164.2632 1745798 073.5390 304.9255 11.27449472237962
1 00012U 59001  B 89221.15635610  .00002896 +00000-0 +18015-2 0  9999
2 00012 032.8973 161.2534 1745836 078.0643 300.9534 11.27456095238064
1 00012U 59001  B 89221.24495181  .00002948 +00000-0 +18320-2 0  9993
2 00012 032.8966 160.9517 1745928 078.5144 300.5585 11.27457352238076
1 00012U 59001  B 89223.19397650  .00003107 +00000-0 +19312-2 0  9991
2 00012 032.8943 154.3251 1745953 088.4733 291.4177 11.27471288238298
1 00012U 59001  B 89225.23141513  .00003295 +00000-0 +20466-2 0  9993
2 00012 032.8917 147.3975 1745941 098.8868 281.2479 11.27487031238526
1 00012U 59001  B 89226.11719602  .00003445 +00000-0 +21388-2 0  9992
2 00012 032.8904 144.3873 1746047 103.4041 276.6296 11.27495373238624
1 00012U 59001  B 89226.20577150  .00003453 +00000-0 +21426-2 0  9994
2 00012 032.8902 144.0847 1746053 103.8584 276.1591 11.27496064238635
1 00012U 59001  B 89228.06578322  .00003595 +00000-0 +22290-2 0  9999
2 00012 032.8891 137.7637 1746160 113.3557 265.9966 11.27511439238842
1 00012U 59001  B 89229.12856620  .00003739 +00000-0 +23165-2 0  9999
2 00012 032.8881 134.1521 1746222 118.7739 259.9296 11.27521676238960
1 00012U 59001  B 89230.10273672  .00003793 +00000-0 +23507-2 0  9999
2 00012 032.8879 130.8415 1746175 123.7473 254.1878 11.27529949239077
1 00012U 59001  B 89231.87383677  .00003827 +00000-0 +23717-2 0  9992
2 00012 032.8882 124.8222 1746079 132.7906 243.3345 11.27544128239271
1 00012U 59001  B 89233.02497524  .00003813 +00000-0 +23631-2 0  9998
2 00012 032.8887 120.9097 1746064 138.6667 236.0096 11.27552768239402
1 00012U 59001  B 89234.97292928  .00003666 +00000-0 +22714-2 0  9991
2 00012 032.8913 114.2898 1746036 148.6050 223.1544 11.27565055239625
1 00012U 59001  B 89236.92074646  .00003466 +00000-0 +21485-2 0  9995
2 00012 032.8945 107.6705 1745897 158.5394 209.8279 11.27575872239846
1 00012U 59001  B 89239.93083385  .00003014 +00000-0 +18739-2 0  9996
2 00012 032.9012 097.4423 1745262 173.9038 188.5925 11.27587791240180
1 00012U 59001  B 89240.90465480  .00002789 +00000-0 +17339-2 0  9998
2 00012 032.9048 094.1329 1745192 178.8683 181.6108 11.27589729240292
1 00012U 59001  B 89241.96701053  .00002690 +00000-0 +16743-2 0  9993
2 00012 032.9064 090.5230 1744959 184.2903 174.0453 11.27593843240412
1 00012U 59001  B 89242.40965801  .00002690 +00000-0 +16745-2 0  9998
2 00012 032.9064 089.0181 1744953 186.5526 170.9050 11.27596224240469
1 00012U 59001  B 89242.94083201  .00002575 +00000-0 +16043-2 0  9995
2 00012 032.9081 087.2132 1744804 189.2645 167.1012 11.27596929240526
1 00012U 59001  B 89243.91465879  .00002468 +00000-0 +15355-2 0  9994
2 00012 032.9094 083.9020 1744895 194.2463 160.1827 11.27599828240633
1 00012U 59001  B 89244.88849823  .00002311 +00000-0 +14350-2 0  9997
2 00012 032.9112 080.5906 1745243 199.2301 153.3134 11.27601541240747
1 00012U 59001  B 89245.86236262  .00002247 +00000-0 +13950-2 0  9996
2 00012 032.9120 077.2805 1745273 204.2062 146.5733 11.27604780240850
1 00012U 59001  B 89247.89868664  .00002075 +00000-0 +12903-2 0  9994
2 00012 032.9148 070.3623 1744863 214.5842 132.7793 11.27610352241087
1 00012U 59001  B 89248.87262923  .00002030 +00000-0 +12635-2 0  9992
2 00012 032.9155 067.0528 1744738 219.5531 126.3944 11.27613495241193
1 00012U 59001  B 89249.75804972  .00001929 +00000-0 +11961-2 0  9993
2 00012 032.9163 064.0323 1745283 224.0972 120.6520 11.27614936241297
1 00012U 59001  B 89250.82059721  .00001963 +00000-0 +12186-2 0  9995
2 00012 032.9163 060.4238 1745081 229.5134 113.9998 11.27619907241419
1 00012U 59001  B 89251.52896828  .00001991 +00000-0 +12251-2 0  9994
2 00012 032.9156 058.0025 1746465 233.1513 109.6049 11.27623408241495
1 00012U 59001  B 89253.65423839  .00002060 +00000-0 +12718-2 0  9994
2 00012 032.9155 050.7852 1745919 243.9910 097.0858 11.27633690241733
1 00012U 59001  B 89253.83134936  .00002136 +00000-0 +13196-2 0  9996
2 00012 032.9150 050.1867 1745883 244.8865 096.0985 11.27636268241753
1 00012U 59001  B 89254.80548959  .00002250 +00000-0 +13910-2 0  9999
2 00012 032.9141 046.8781 1745685 249.8541 090.6554 11.27643050241867
1 00012U 59001  B 89255.51397461  .00002279 +00000-0 +14102-2 0  9993
2 00012 032.9137 044.4700 1745552 253.4803 086.7613 11.27646706241944
1 00012U 59001  B 89255.77966010  .00002347 +00000-0 +14514-2 0  9996
2 00012 032.9126 043.5646 1745705 254.8450 085.3302 11.27649163241977
1 00012U 59001  B 89257.81666994  .00002536 +00000-0 +15662-2 0  9996
2 00012 032.9118 036.6376 1745892 265.2744 074.7158 11.27663029242205
1 00012U 59001  B 89260.65099777  .00002737 +00000-0 +16848-2 0  9991
2 00012 032.9122 026.9894 1746317 279.7412 061.1128 11.27683080242523
1 00012U 59001  B 89262.68832477  .00002732 +00000-0 +16852-2 0  9998
2 00012 032.9146 020.0638 1745949 290.1441 052.0201 11.27695117242759
1 00012U 59001  B 89263.75131476  .00002718 +00000-0 +16754-2 0  9993
2 00012 032.9153 016.4504 1746016 295.5683 047.4688 11.27700930242871
1 00012U 59001  B 89264.72574931  .00002670 +00000-0 +16467-2 0  9996
2 00012 032.9165 013.1391 1745935 300.5416 043.4169 11.27705637242983
1 00012U 59001  B 89268.26931827  .00002385 +00000-0 +14709-2 0  9990
2 00012 032.9199 001.0954 1745737 318.6364 029.4056 11.27718060243381
1 00012U 59001  B 89268.62365016  .00002320 +00000-0 +14337-2 0  9997
2 00012 032.9287 359.8941 1745441 320.4376 027.9132 11.27719391243426
1 00012U 59001  B 89271.63590400  .00000956 +00000-0 +58895-3 0  9990
2 00012 032.9248 349.6544 1745041 335.8314 016.9174 11.27716069243767
1 00012U 59001  B 89275.17975540  .00001204 +00000-0 +74309-3 0  9990
2 00012 032.9213 337.6061 1744909 353.9368 004.2389 11.27726200244163
1 00012U 59001  B 89276.42010492  .00001289 +00000-0 +79689-3 0  9994
2 00012 032.9202 333.3887 1744793 000.2731 359.8520 11.27730341244300
1 00012U 59001  B 89276.50870136  .00001331 +00000-0 +82273-3 0  9993
2 00012 032.9198 333.0874 1744793 000.7267 359.5424 11.27731122244315
1 00012U 59001  B 89279.25515946  .00001602 +00000-0 +99353-3 0  9991
2 00012 032.9163 323.7464 1744489 014.7622 349.7945 11.27742975244621
1 00012U 59001  B 89281.55858177  .00001909 +00000-0 +11837-2 0  9993
2 00012 032.9135 315.9128 1744553 026.5333 341.4855 11.27755638244889
1 00012U 59001  B 89283.41897544  .00002146 +00000-0 +13302-2 0  9994
2 00012 032.9124 309.5894 1744593 036.0375 334.6150 11.27767241245091
1 00012U 59001  B 89286.07655070  .00002427 +00000-0 +15037-2 0  9994
2 00012 032.9094 300.5506 1744685 049.6226 324.4140 11.27784725245390
1 00012U 59001  B 89287.13953220  .00002523 +00000-0 +15646-2 0  9993
2 00012 032.9086 296.9370 1744501 055.0552 320.1875 11.27791883245513
1 00012U 59001  B 89289.44254656  .00002625 +00000-0 +16297-2 0  9992
2 00012 032.9056 289.1019 1744254 066.8312 310.6176 11.27805461245777
1 00012U 59001  B 89291.30255464  .00002621 +00000-0 +16291-2 0  9998
2 00012 032.9039 282.7749 1743985 076.3441 302.4561 11.27814891245983
1 00012U 59001  B 89293.07387199  .00002615 +00000-0 +16268-2 0  9992
2 00012 032.9029 276.7506 1743853 085.4012 294.2653 11.27823901246180
1 00012U 59001  B 89294.31371929  .00002619 +00000-0 +16294-2 0  9997
2 00012 032.9022 272.5343 1743742 091.7416 288.2678 11.27830320246320
1 00012U 59001  B 89298.20993706  .00002696 +00000-0 +16771-2 0  9997
2 00012 032.8995 259.2816 1743739 111.6620 267.8213 11.27852314246763
1 00012U 59001  B 89299.98071650  .00002651 +00000-0 +16469-2 0  9993
2 00012 032.8995 253.2596 1743883 120.7093 257.6807 11.27860800246964
1 00012U 59001  B 89303.16778113  .00002287 +00000-0 +14180-2 0  9990
2 00012 032.9039 242.4243 1744017 136.9869 238.1041 11.27870088247327
1 00012U 59001  B 89305.02670011  .00002074 +00000-0 +12866-2 0  9998
2 00012 032.9065 236.1038 1743886 146.4917 225.9133 11.27874489247539
1 00012U 59001  B 89307.15103612  .00001982 +00000-0 +12289-2 0  9998
2 00012 032.9068 228.8783 1743852 157.3445 211.4659 11.27881222247779
1 00012U 59001  B 89308.12463516  .00002003 +00000-0 +12258-2 0  9999
2 00012 032.9057 225.5648 1744152 162.3544 204.6247 11.27884908247884
1 00012U 59001  B 89310.07179397  .00002035 +00000-0 +12630-2 0  9996
2 00012 032.9057 218.9468 1743722 172.2622 190.9010 11.27893633248105
1 00012U 59001  B 89312.10739021  .00002135 +00000-0 +13240-2 0  9997
2 00012 032.9049 212.0240 1743802 182.6698 176.3381 11.27904019248331
1 00012U 59001  B 89313.08093543  .00002238 +00000-0 +13897-2 0  9999
2 00012 032.9041 208.7157 1743554 187.6281 169.4093 11.27910139248444
1 00012U 59001  B 89313.87747309  .00002267 +00000-0 +14062-2 0  9999
2 00012 032.9036 206.0057 1743737 191.7097 163.7376 11.27914234248533
